GLOBALSTAR M070 [+]     
1 32264U 07048B   17345.96048715 -.00000098  00000-0  31757-4 0  9991
2 32264  51.9733 207.8775 0000916  94.3433  11.5616 12.62265293467291
